0 COSMOS 2251 DEB
1 34543U 93036UD  13281.70455184  .00034396  00000-0  42306-2 0  1544
2 34543 074.0238 014.7432 0053504 153.8731 331.0702 14.81813210245737
0 COSMOS 2251 DEB
1 34543U 93036UD  13282.71734787  .00044292  00000-0  54255-2 0  1558
2 34543 074.0233 012.7414 0053004 151.7784 333.9076 14.81935436245886
0 COSMOS 2251 DEB
1 34543U 93036UD  13283.23970394  .00052424  00000-0  64073-2 0  1568
2 34543 074.0230 011.7087 0052880 150.5922 240.7210 14.81979957245959
0 COSMOS 2251 DEB
1 34543U 93036UD  13285.27029039  .00036851  00000-0  45001-2 0  1583
2 34543 074.0235 007.6924 0052359 146.0978 274.7036 14.82136128246253
0 COSMOS 2251 DEB
1 34543U 93036UD  13286.28180638  .00033447  00000-0  40805-2 0  1594
2 34543 074.0242 005.6920 0052157 143.7017 272.1037 14.82207152246405
0 COSMOS 2251 DEB
1 34543U 93036UD  13287.91356602  .00063418  00000-0  76817-2 0  1606
2 34543 074.0246 002.4635 0051660 139.9559 339.5110 14.82328927246654
0 COSMOS 2251 DEB
1 34543U 93036UD  13289.17894196  .00051047  00000-0  61769-2 0  1617
2 34543 074.0245 359.9600 0051182 137.1159 252.3911 14.82465727246831
0 COSMOS 2251 DEB
1 34543U 93036UD  13290.19160789  .00048775  00000-0  58969-2 0  1628
2 34543 074.0241 357.9559 0050783 134.9217 256.9228 14.82530168246983
0 COSMOS 2251 DEB
1 34543U 93036UD  13290.88308221  .00040481  00000-0  48925-2 0  1637
2 34543 074.0239 356.5872 0050827 133.2289 347.6335 14.82595932247093
0 COSMOS 2251 DEB
1 34543U 93036UD  13292.22035274  .00036375  00000-0  43913-2 0  1642
2 34543 074.0241 353.9399 0050236 130.2667 285.3260 14.82691475247287
0 COSMOS 2251 DEB
1 34543U 93036UD  13294.59457652  .00047050  00000-0  56525-2 0  1658
2 34543 074.0226 349.2382 0049598 124.6154 359.2781 14.82844070247647
0 COSMOS 2251 DEB
1 34543U 93036UD  13295.18988501  .00043535  00000-0  52294-2 0  1660
2 34543 074.0230 348.0594 0049333 123.2832 297.2365 14.82882894247723
